INTELSAT 26         [PM]
1 24732C 97007A   21081.65277778  .00000108  00000-0  00000-0 0   813
2 24732   9.4304  41.3706 0013701 353.0629  84.6054  1.00267015    11
INTELSAT 26             
1 24732C 97007A   21087.95296296  .00000108  00000-0  00000-0 0   874
2 24732   9.4402  41.2916 0008855 323.6525 228.2951  1.00276634    13
INTELSAT 26             
1 24732C 97007A   21091.00000000  .00000108  00000-0  00000-0 0   916
2 24732   9.4480  41.2853 0007509 330.5780 241.3086  1.00278152    16
GALAXY 25               
1 24812C 97026A   21087.95296296  .00000245  00000-0  00000-0 0   876
2 24812   2.5980  87.9238 0004564 328.0255 146.5833  1.00274794    19
GALAXY 25               
1 24812C 97026A   21091.00000000  .00000245  00000-0  00000-0 0   918
2 24812   2.6103  87.8559 0004498 330.6955 163.9151  1.00272110    10
GALAXY 25           [PM]
1 24812C 97026A   21091.17652778  .00000245  00000-0  00000-0 0   911
2 24812   2.6143  76.4447 0004040 326.2102 243.5289  1.00269687    14
INTELSAT 5              
1 24916C 97046A   21087.95296296  .00000186  00000-0  00000-0 0   877
2 24916   6.2921  63.8983 0002692 337.2423 351.5032  1.00268816    16
INTELSAT 5          [PM]
1 24916C 97046A   21088.95828704  .00000186  00000-0  00000-0 0   884
2 24916   6.2957  63.8823 0002824 342.9138 348.7474  1.00269696    16
INTELSAT 5              
1 24916C 97046A   21091.00000000  .00000186  00000-0  00000-0 0   919
2 24916   6.3029  63.8759 0003317 356.5681 352.1124  1.00272429    16
GALAXY 11               
1 26038C 99071A   21088.00000000 -.00000072  00000-0  00000-0 0   883
2 26038   1.8887  93.6376 0000827 180.8892 178.9917  1.00270133    10
GALAXY 11               
1 26038C 99071A   21091.00000000 -.00000072  00000-0  00000-0 0   911
2 26038   1.9004  93.5313 0000580 167.3101 195.6242  1.00270616    14
INTELSAT 9              
1 26451C 00043A   21087.95296296 -.00000191  00000-0  00000-0 0   871
2 26451   6.2796  64.0657 0003851 338.1917  77.3795  1.00273955    18
INTELSAT 9              
1 26451C 00043A   21091.00000000 -.00000191  00000-0  00000-0 0   913
2 26451   6.2901  64.0637 0004669 339.4949  96.0269  1.00271233    12
INTELSAT 9          [PM]
1 26451C 00043A   21095.91668982 -.00000191  00000-0  00000-0 0   950
2 26451   6.2991  64.0605 0003732 350.1809  60.1681  1.00274793    15
INTELSAT 12             
1 26590C 00068A   21087.95296296  .00000104  00000-0  00000-0 0   875
2 26590   3.5985  83.6948 0005741 320.4911 189.7018  1.00271998    11
INTELSAT 12             
1 26590C 00068A   21091.00000000  .00000104  00000-0  00000-0 0   917
2 26590   3.6109  83.6445 0005987 321.6584 208.5156  1.00270826    15
INTELSAT 12         [PM]
1 26590C 00068A   21091.57665509  .00000104  00000-0  00000-0 0   910
2 26590   3.6132  83.6405 0005505 332.8536  45.4814  1.00271012    11
INTELSAT 1R             
1 26608C 00072A   21088.00000000 -.00000047  00000-0  00000-0 0   881
2 26608   3.3812  83.6708 0000880 185.1032  74.9484  1.00270121    10
INTELSAT 1R             
1 26608C 00072A   21091.00000000 -.00000047  00000-0  00000-0 0   919
2 26608   3.3949  83.6327 0000731 173.2398  89.8022  1.00270709    11
INTELSAT 10             
1 26766C 01019A   21087.95296296 -.00000066  00000-0  00000-0 0   875
2 26766   4.5369  76.9041 0005568 306.3301 227.7527  1.00636663    17
INTELSAT 10         [PM]
1 26766C 01019A   21090.66667824 -.00000100  00000-0  00000-0 0   909
2 26766   4.5477  76.8777 0005680 323.3706 113.9081  1.00636354    13
INTELSAT 10             
1 26766C 01019A   21091.00000000 -.00000104  00000-0  00000-0 0   910
2 26766   4.5492  76.8678 0005449 308.0851 249.9524  1.00638606    18
INTELSAT 901            
1 26824C 01024A   21087.95296296 -.00004313  00000-0  00000-0 0   875
2 26824   0.0001 162.5794 0001341 235.9381 103.6206  1.00270226    18
INTELSAT 901            
1 26824C 01024A   21091.00000000 -.00000115  00000-0  00000-0 0   913
2 26824   0.0291  86.5651 0001207 316.5153 118.9840  1.00270599    16
INTELSAT 902            
1 26900C 01039A   21087.95296296 -.00000192  00000-0  00000-0 0   877
2 26900   1.2997  93.6842 0003192 287.7578  98.0940  1.00272400    15
INTELSAT 902        [PM]
1 26900C 01039A   21088.62950232 -.00000192  00000-0  00000-0 0   880
2 26900   1.3024  93.6230 0003199 287.8758 342.2621  1.00271952    17
INTELSAT 902            
1 26900C 01039A   21091.00000000 -.00000192  00000-0  00000-0 0   919
2 26900   1.3118  93.5517 0003235 297.0224 108.8998  1.00271954    15
INTELSAT 904            
1 27380C 02007A   21087.95296296 -.00000123  00000-0  00000-0 0   870
2 27380   2.1365  90.4593 0003560 287.8634 121.8116  1.00272284    18
INTELSAT 904            
1 27380C 02007A   21091.00000000 -.00000123  00000-0  00000-0 0   912
2 27380   2.1488  90.3820 0003662 296.9801 132.7091  1.00271998    10
INTELSAT 904        [PM]
1 27380C 02007A   21093.81591435 -.00000123  00000-0  00000-0 0   932
2 27380   2.1581  90.4314 0003419 299.8966  66.2433  1.00272330    19
INTELSAT 905            
1 27438C 02027A   21087.95296296 -.00000094  00000-0  00000-0 0   873
2 27438   1.9579  91.2893 0002954 282.6082 131.2289  1.00275781    15
INTELSAT 905        [PM]
1 27438C 02027A   21089.84137732 -.00000094  00000-0  00000-0 0   894
2 27438   1.9652  91.2102 0002721 283.1733  92.4379  1.00272303    16
INTELSAT 905            
1 27438C 02027A   21091.00000000 -.00000094  00000-0  00000-0 0   915
2 27438   1.9700  91.1963 0002901 288.1607 145.7122  1.00272133    18
GALAXY 3C               
1 27445C 02030A   21088.00000000 -.00000061  00000-0  00000-0 0   883
2 27445   0.0259 275.0283 0002115  73.1779 103.3683  1.00266566    17
GALAXY 3C               
1 27445C 02030A   21091.00000000 -.00000061  00000-0  00000-0 0   911
2 27445   0.0230 289.6957 0001579  52.1786 112.6470  1.00269608    10
INTELSAT 906            
1 27513C 02041A   21087.95296296  .00000105  00000-0  00000-0 0   875
2 27513   0.9648  95.6236 0003570 282.9013 215.2542  1.00271433    11
INTELSAT 906            
1 27513C 02041A   21091.00000000  .00000105  00000-0  00000-0 0   917
2 27513   0.9768  95.4209 0003537 290.4884 227.8012  1.00272449    14
INTELSAT 906        [PM]
1 27513C 02041A   21094.05905093  .00000105  00000-0  00000-0 0   944
2 27513   0.9867  95.5576 0003529 293.1777 249.2570  1.00270828    10
GALAXY 12               
1 27715C 03013B   21087.95296296  .00000149  00000-0  00000-0 0   877
2 27715   2.1721  89.9358 0002075 289.4202  21.2748  1.00271026    14
GALAXY 12               
1 27715C 03013B   21091.00000000  .00000149  00000-0  00000-0 0   919
2 27715   2.1845  89.8529 0002078 303.3247  27.3921  1.00272825    16
GALAXY 12           [PM]
1 27715C 03013B   21091.59934028  .00000149  00000-0  00000-0 0   919
2 27715   2.1866  89.8620 0002366 296.1665 250.8942  1.00270647    10
GALAXY 23               
1 27854C 03034A   21087.95296296  .00000103  00000-0  00000-0 0   874
2 27854   0.0169 227.9814 0003182 148.5957  32.0576  1.00271436    18
GALAXY 23               
1 27854C 03034A   21091.00000000  .00000103  00000-0  00000-0 0   916
2 27854   0.0058 208.3884 0003148 175.0913  45.0818  1.00271210    17
GALAXY 23           [PM]
1 27854C 03034A   21091.58158565  .00000103  00000-0  00000-0 0   919
2 27854   0.0290 257.0045 0003181 129.5180 251.9814  1.00273042    11
GALAXY 13           [PM]
1 27954C 03044A   21083.83075232  .00000138  00000-0  00000-0 0   838
2 27954   0.0355 269.6621 0001086 100.7776 344.1059  1.00269676    11
GALAXY 13               
1 27954C 03044A   21087.95296296  .00000144  00000-0  00000-0 0   871
2 27954   0.0250 255.2407 0001471 312.8446 194.5516  1.00268095    15
GALAXY 13               
1 27954C 03044A   21091.00000000  .00000135  00000-0  00000-0 0   913
2 27954   0.0192 262.5552 0000444 299.0619 220.9394  1.00269632    15
INTELSAT 10-02          
1 28358C 04022A   21088.00000000  .00000086  00000-0  00000-0 0   886
2 28358   0.0039 216.7920 0001917 177.7046 151.1218  1.00269744    10
INTELSAT 10-02          
1 28358C 04022A   21091.00000000  .00000095  00000-0  00000-0 0   914
2 28358   0.0000 176.0755 0001997 232.7094 139.7703  1.00270816    18
INTELSAT 10-02      [PM]
1 28358C 04022A   21092.77916667  .00000079  00000-0  00000-0 0   927
2 28358   0.0173 118.3357 0001988 268.1061  84.3596  1.00282432    15
GALAXY 28               
1 28702C 05022A   21088.00000000 -.00000097  00000-0  00000-0 0   883
2 28702   0.0047 155.8727 0002608 201.7782  99.9691  1.00270229    17
GALAXY 28           [PM]
1 28702C 05022A   21090.05526620 -.00000095  00000-0  00000-0 0   903
2 28702   0.0157 121.7441 0002306 230.8430 126.9446  1.00272781    16
GALAXY 28               
1 28702C 05022A   21091.00000000 -.00000094  00000-0  00000-0 0   918
2 28702   0.0233 105.9155 0002399 259.8958  94.7556  1.00270509    15
GALAXY 14               
1 28790C 05030A   21087.95296296 -.00000107  00000-0  00000-0 0   877
2 28790   0.1552  92.8664 0004183 258.3549  90.9535  1.00528606    18
GALAXY 14               
1 28790C 05030A   21091.00000000 -.00000121  00000-0  00000-0 0   915
2 28790   0.1664  91.9745 0003968 264.2958 108.6542  1.00528537    10
GALAXY 15               
1 28884C 05041A   21087.95296296  .00000175  00000-0  00000-0 0   877
2 28884   0.0041 166.7136 0002284 225.8993   4.0209  1.00271551    19
GALAXY 15               
1 28884C 05041A   21091.00000000  .00000169  00000-0  00000-0 0   912
2 28884   0.0240 112.2284 0002231 285.3039  19.0407  1.00270050    13
GALAXY 15           [PM]
1 28884C 05041A   21091.62605324  .00000169  00000-0  00000-0 0   910
2 28884   0.0277 103.6517 0002244 295.9550 242.9581  1.00270500    15
GALAXY 16               
1 29236C 06023A   21087.95296296 -.00000037  00000-0  00000-0 0   878
2 29236   0.0356 266.1887 0002807 125.2640  39.1773  1.00270922    17
